[{"OBJECT_NAME":"ONEWEB-0629","OBJECT_ID":"2023-004AG","EPOCH":"2025-12-17T04:05:25.323072","MEAN_MOTION":13.17650146,"ECCENTRICITY":0.00021203,"INCLINATION":87.9106,"RA_OF_ASC_NODE":42.0686,"ARG_OF_PERICENTER":103.609,"MEAN_ANOMALY":256.5277,"EPHEMERIS_TYPE":0,"CLASSIFICATION_TYPE":"U","NORAD_CAT_ID":55170,"ELEMENT_SET_NO":999,"REV_AT_EPOCH":14361,"BSTAR":0.00014319017,"MEAN_MOTION_DOT":6.8e-7,"MEAN_MOTION_DDOT":0},{"OBJECT_NAME":"ONEWEB-0631","OBJECT_ID":"2023-004AH","EPOCH":"2025-12-17T07:13:29.793792","MEAN_MOTION":13.18687437,"ECCENTRICITY":0.00012179,"INCLINATION":87.918,"RA_OF_ASC_NODE":11.5553,"ARG_OF_PERICENTER":91.5727,"MEAN_ANOMALY":268.5545,"EPHEMERIS_TYPE":0,"CLASSIFICATION_TYPE":"U","NORAD_CAT_ID":55171,"ELEMENT_SET_NO":999,"REV_AT_EPOCH":14570,"BSTAR":7.8925548e-5,"MEAN_MOTION_DOT":4.4e-7,"MEAN_MOTION_DDOT":0},{"OBJECT_NAME":"ONEWEB-0709","OBJECT_ID":"2023-004AJ","EPOCH":"2025-12-17T03:50:43.853856","MEAN_MOTION":13.11416556,"ECCENTRICITY":0.00012154,"INCLINATION":87.8853,"RA_OF_ASC_NODE":57.3339,"ARG_OF_PERICENTER":73.9918,"MEAN_ANOMALY":286.1344,"EPHEMERIS_TYPE":0,"CLASSIFICATION_TYPE":"U","NORAD_CAT_ID":55172,"ELEMENT_SET_NO":999,"REV_AT_EPOCH":14201,"BSTAR":0.00019306141,"MEAN_MOTION_DOT":8.1e-7,"MEAN_MOTION_DDOT":0},{"OBJECT_NAME":"ONEWEB-0710","OBJECT_ID":"2023-004AK","EPOCH":"2025-12-17T02:36:44.399808","MEAN_MOTION":13.17647439,"ECCENTRICITY":0.00017129,"INCLINATION":87.9108,"RA_OF_ASC_NODE":42.0756,"ARG_OF_PERICENTER":105.4543,"MEAN_ANOMALY":254.6778,"EPHEMERIS_TYPE":0,"CLASSIFICATION_TYPE":"U","NORAD_CAT_ID":55173,"ELEMENT_SET_NO":999,"REV_AT_EPOCH":14360,"BSTAR":0.00016244191,"MEAN_MOTION_DOT":7.6e-7,"MEAN_MOTION_DDOT":0},{"OBJECT_NAME":"ONEWEB-0711","OBJECT_ID":"2023-004AL","EPOCH":"2025-12-17T04:59:08.670336","MEAN_MOTION":13.11414599,"ECCENTRICITY":0.00018198,"INCLINATION":87.8862,"RA_OF_ASC_NODE":57.2988,"ARG_OF_PERICENTER":128.915,"MEAN_ANOMALY":231.214,"EPHEMERIS_TYPE":0,"CLASSIFICATION_TYPE":"U","NORAD_CAT_ID":55174,"ELEMENT_SET_NO":999,"REV_AT_EPOCH":14198,"BSTAR":-4.0361054e-5,"MEAN_MOTION_DOT":-2.0e-8,"MEAN_MOTION_DDOT":0},{"OBJECT_NAME":"ONEWEB-0713","OBJECT_ID":"2023-004AM","EPOCH":"2025-12-17T05:25:57.730368","MEAN_MOTION":13.11418303,"ECCENTRICITY":0.00017235,"INCLINATION":87.8857,"RA_OF_ASC_NODE":57.2972,"ARG_OF_PERICENTER":118.9124,"MEAN_ANOMALY":241.2177,"EPHEMERIS_TYPE":0,"CLASSIFICATION_TYPE":"U","NORAD_CAT_ID":55175,"ELEMENT_SET_NO":999,"REV_AT_EPOCH":14197,"BSTAR":-0.00086629542,"MEAN_MOTION_DOT":-2.94e-6,"MEAN_MOTION_DDOT":0},{"OBJECT_NAME":"ONEWEB-0715","OBJECT_ID":"2023-004AN","EPOCH":"2025-12-17T05:18:37.359072","MEAN_MOTION":13.11415637,"ECCENTRICITY":0.00010441,"INCLINATION":87.886,"RA_OF_ASC_NODE":57.2992,"ARG_OF_PERICENTER":95.9287,"MEAN_ANOMALY":264.196,"EPHEMERIS_TYPE":0,"CLASSIFICATION_TYPE":"U","NORAD_CAT_ID":55176,"ELEMENT_SET_NO":999,"REV_AT_EPOCH":14201,"BSTAR":-0.001373383,"MEAN_MOTION_DOT":-4.74e-6,"MEAN_MOTION_DDOT":0},{"OBJECT_NAME":"ONEWEB-0716","OBJECT_ID":"2023-004AP","EPOCH":"2025-12-17T04:16:22.048608","MEAN_MOTION":13.17650131,"ECCENTRICITY":0.00019855,"INCLINATION":87.9108,"RA_OF_ASC_NODE":42.0617,"ARG_OF_PERICENTER":94.667,"MEAN_ANOMALY":265.4688,"EPHEMERIS_TYPE":0,"CLASSIFICATION_TYPE":"U","NORAD_CAT_ID":55177,"ELEMENT_SET_NO":999,"REV_AT_EPOCH":14361,"BSTAR":6.8741998e-5,"MEAN_MOTION_DOT":4.0e-7,"MEAN_MOTION_DDOT":0},{"OBJECT_NAME":"ONEWEB-0717","OBJECT_ID":"2023-004AQ","EPOCH":"2025-12-17T03:52:03.593280","MEAN_MOTION":13.17650842,"ECCENTRICITY":0.00016071,"INCLINATION":87.9116,"RA_OF_ASC_NODE":42.0363,"ARG_OF_PERICENTER":123.9662,"MEAN_ANOMALY":236.1622,"EPHEMERIS_TYPE":0,"CLASSIFICATION_TYPE":"U","NORAD_CAT_ID":55178,"ELEMENT_SET_NO":999,"REV_AT_EPOCH":14366,"BSTAR":0.00028752073,"MEAN_MOTION_DOT":1.25e-6,"MEAN_MOTION_DDOT":0},{"OBJECT_NAME":"ONEWEB-0719","OBJECT_ID":"2023-004AR","EPOCH":"2025-12-17T04:06:38.889216","MEAN_MOTION":13.17648335,"ECCENTRICITY":0.00020123,"INCLINATION":87.9117,"RA_OF_ASC_NODE":42.0168,"ARG_OF_PERICENTER":99.3175,"MEAN_ANOMALY":260.8185,"EPHEMERIS_TYPE":0,"CLASSIFICATION_TYPE":"U","NORAD_CAT_ID":55179,"ELEMENT_SET_NO":999,"REV_AT_EPOCH":14361,"BSTAR":6.3713289e-5,"MEAN_MOTION_DOT":3.8e-7,"MEAN_MOTION_DDOT":0},{"OBJECT_NAME":"ONEWEB-0530","OBJECT_ID":"2023-029A","EPOCH":"2025-12-17T06:34:46.283520","MEAN_MOTION":13.20770473,"ECCENTRICITY":0.00018619,"INCLINATION":87.9202,"RA_OF_ASC_NODE":310.7632,"ARG_OF_PERICENTER":97.6451,"MEAN_ANOMALY":262.4894,"EPHEMERIS_TYPE":0,"CLASSIFICATION_TYPE":"U","NORAD_CAT_ID":55796,"ELEMENT_SET_NO":999,"REV_AT_EPOCH":13713,"BSTAR":3.2963951e-5,"MEAN_MOTION_DOT":2.6e-7,"MEAN_MOTION_DDOT":0},{"OBJECT_NAME":"ONEWEB-0534","OBJECT_ID":"2023-029B","EPOCH":"2025-12-17T06:16:35.827392","MEAN_MOTION":13.20770052,"ECCENTRICITY":0.00019759,"INCLINATION":87.9198,"RA_OF_ASC_NODE":310.766,"ARG_OF_PERICENTER":80.7532,"MEAN_ANOMALY":279.3825,"EPHEMERIS_TYPE":0,"CLASSIFICATION_TYPE":"U","NORAD_CAT_ID":55797,"ELEMENT_SET_NO":999,"REV_AT_EPOCH":13713,"BSTAR":-0.00011665106,"MEAN_MOTION_DOT":-3.4e-7,"MEAN_MOTION_DDOT":0},{"OBJECT_NAME":"ONEWEB-0556","OBJECT_ID":"2023-029C","EPOCH":"2025-12-17T06:25:41.942784","MEAN_MOTION":13.20771947,"ECCENTRICITY":0.00027833,"INCLINATION":87.9202,"RA_OF_ASC_NODE":310.765,"ARG_OF_PERICENTER":88.9776,"MEAN_ANOMALY":271.1677,"EPHEMERIS_TYPE":0,"CLASSIFICATION_TYPE":"U","NORAD_CAT_ID":55798,"ELEMENT_SET_NO":999,"REV_AT_EPOCH":13713,"BSTAR":-0.00038407284,"MEAN_MOTION_DOT":-1.43e-6,"MEAN_MOTION_DDOT":0},{"OBJECT_NAME":"ONEWEB-0562","OBJECT_ID":"2023-029D","EPOCH":"2025-12-17T07:56:37.119552","MEAN_MOTION":13.20771424,"ECCENTRICITY":0.00022859,"INCLINATION":87.9197,"RA_OF_ASC_NODE":310.7344,"ARG_OF_PERICENTER":104.1647,"MEAN_ANOMALY":255.9741,"EPHEMERIS_TYPE":0,"CLASSIFICATION_TYPE":"U","NORAD_CAT_ID":55799,"ELEMENT_SET_NO":999,"REV_AT_EPOCH":13714,"BSTAR":7.5339419e-5,"MEAN_MOTION_DOT":4.4e-7,"MEAN_MOTION_DDOT":0},{"OBJECT_NAME":"ONEWEB-0563","OBJECT_ID":"2023-029E","EPOCH":"2025-12-17T07:47:30.512544","MEAN_MOTION":13.20769921,"ECCENTRICITY":0.00020995,"INCLINATION":87.9204,"RA_OF_ASC_NODE":310.7635,"ARG_OF_PERICENTER":79.2997,"MEAN_ANOMALY":280.8372,"EPHEMERIS_TYPE":0,"CLASSIFICATION_TYPE":"U","NORAD_CAT_ID":55800,"ELEMENT_SET_NO":999,"REV_AT_EPOCH":13713,"BSTAR":0.00017149443,"MEAN_MOTION_DOT":8.3e-7,"MEAN_MOTION_DDOT":0},{"OBJECT_NAME":"ONEWEB-0564","OBJECT_ID":"2023-029F","EPOCH":"2025-12-17T07:38:25.435680","MEAN_MOTION":13.20767265,"ECCENTRICITY":0.00019779,"INCLINATION":87.9195,"RA_OF_ASC_NODE":310.7404,"ARG_OF_PERICENTER":94.3853,"MEAN_ANOMALY":265.7507,"EPHEMERIS_TYPE":0,"CLASSIFICATION_TYPE":"U","NORAD_CAT_ID":55801,"ELEMENT_SET_NO":999,"REV_AT_EPOCH":13714,"BSTAR":0.0020568891,"MEAN_MOTION_DOT":8.49e-6,"MEAN_MOTION_DDOT":0}]
