ONEWEB-0629             
1 55170U 23004AG  25351.17043198  .00000068  00000+0  14319-3 0  9990
2 55170  87.9106  42.0686 0002120 103.6090 256.5277 13.17650146143614
ONEWEB-0631             
1 55171U 23004AH  25351.30103928  .00000044  00000+0  78926-4 0  9993
2 55171  87.9180  11.5553 0001217  91.5727 268.5545 13.18687437145706
ONEWEB-0709             
1 55172U 23004AJ  25351.16022979  .00000081  00000+0  19306-3 0  9991
2 55172  87.8853  57.3339 0001215  73.9918 286.1344 13.11416556142016
ONEWEB-0710             
1 55173U 23004AK  25351.10884722  .00000076  00000+0  16244-3 0  9990
2 55173  87.9108  42.0756 0001712 105.4543 254.6778 13.17647439143601
ONEWEB-0711             
1 55174U 23004AL  25351.20773924 -.00000002  00000+0 -40361-4 0  9992
2 55174  87.8862  57.2988 0001819 128.9150 231.2140 13.11414599141981
ONEWEB-0713             
1 55175U 23004AM  25351.22636262 -.00000294  00000+0 -86630-3 0  9999
2 55175  87.8857  57.2972 0001723 118.9124 241.2177 13.11418303141970
ONEWEB-0715             
1 55176U 23004AN  25351.22126573 -.00000474  00000+0 -13734-2 0  9993
2 55176  87.8860  57.2992 0001044  95.9287 264.1960 13.11415637142014
ONEWEB-0716             
1 55177U 23004AP  25351.17803297  .00000040  00000+0  68742-4 0  9991
2 55177  87.9108  42.0617 0001985  94.6670 265.4688 13.17650131143617
ONEWEB-0717             
1 55178U 23004AQ  25351.16115270  .00000125  00000+0  28752-3 0  9998
2 55178  87.9116  42.0363 0001607 123.9662 236.1622 13.17650842143660
ONEWEB-0719             
1 55179U 23004AR  25351.17128344  .00000038  00000+0  63713-4 0  9996
2 55179  87.9117  42.0168 0002012  99.3175 260.8185 13.17648335143618
ONEWEB-0530             
1 55796U 23029A   25351.27414680  .00000026  00000+0  32964-4 0  9991
2 55796  87.9202 310.7632 0001861  97.6451 262.4894 13.20770473137136
ONEWEB-0534             
1 55797U 23029B   25351.26152578 -.00000034  00000+0 -11665-3 0  9991
2 55797  87.9198 310.7660 0001975  80.7532 279.3825 13.20770052137135
ONEWEB-0556             
1 55798U 23029C   25351.26784656 -.00000143  00000+0 -38407-3 0  9994
2 55798  87.9202 310.7650 0002783  88.9776 271.1677 13.20771947137138
ONEWEB-0562             
1 55799U 23029D   25351.33098518  .00000044  00000+0  75339-4 0  9992
2 55799  87.9197 310.7344 0002285 104.1647 255.9741 13.20771424137140
ONEWEB-0563             
1 55800U 23029E   25351.32465871  .00000083  00000+0  17149-3 0  9991
2 55800  87.9204 310.7635 0002099  79.2997 280.8372 13.20769921137133
ONEWEB-0564             
1 55801U 23029F   25351.31834995  .00000849  00000+0  20569-2 0  9997
2 55801  87.9195 310.7404 0001977  94.3853 265.7507 13.20767265137142
